IDEFIX & ARIANE 42P R/B 
1 27422U 02021B   26012.76884503  .00000275  00000+0  12109-3 0  9993
2 27422  98.5815 312.0628 0011871 357.8563   2.2567 14.30977955236027
AQUA                    
1 27424U 02022A   26012.97247290  .00000860  00000+0  18212-3 0  9996
2 27424  98.4079 339.3658 0002038  80.7891 349.4888 14.61817856260594
CZ-4B R/B               
1 27432U 02024C   26012.98297373  .00000024  00000+0  35016-4 0  9999
2 27432  98.8953  66.6387 0050222 180.1440 251.8873 14.14535275221362
MIDORI II (ADEOS-II)    
1 27597U 02056A   26012.86897608  .00000259  00000+0  11978-3 0  9990
2 27597  98.7677 330.9959 0001606 121.3923 238.7416 14.29233865202321
H-2A R/B                
1 27601U 02056E   26012.87544451  .00000332  00000+0  13133-3 0  9999
2 27601  98.3107 335.4005 0069737 328.8382  84.7378 14.33710210206111
CZ-4B R/B               
1 28059U 03049C   26012.95567018  .00000377  00000+0  98048-4 0  9991
2 28059  98.6814   5.7035 0049029  42.8020 317.6977 14.54946521178492
CZ-2C R/B               
1 28222U 04012C   26012.72030054  .00038303  00000+0  50243-3 0  9998
2 28222  97.7372  72.9546 0016978 153.8389 206.3728 15.58289582195549
SL-16 R/B               
1 28353U 04021B   26012.94750476  .00000048  00000+0  49676-4 0  9998
2 28353  71.0028 349.4715 0003227 147.7095 212.4226 14.14592452114957
CZ-4B R/B               
1 28415U 04035C   26012.80587390  .00007545  00000+0  27469-3 0  9994
2 28415  97.3581  47.7420 0033247 164.1077 196.1214 15.27973466171377
CZ-2C R/B               
1 28480U 04046B   26012.74110884  .00000205  00000+0  91754-4 0  9996
2 28480  98.2000 291.1956 0138780 320.7724  38.3463 14.26965023100521
ARIANE 5 R/B            
1 28499U 04049H   26012.91622710  .00001062  00000+0  12360-3 0  9991
2 28499  98.2542 179.3211 0084555 171.0688 189.2054 14.85115582137512
CZ-2D R/B               
1 28738U 05024B   26012.94790451  .00024475  00000+0  36100-3 0  9993
2 28738  97.3630  26.2594 0003926 200.3287 159.7812 15.55369784131100
