CCSDS_OMM_VERS = 2.0
CREATION_DATE  = 
ORIGINATOR     = 

OBJECT_NAME    = IDEFIX & ARIANE 42P R/B
OBJECT_ID      = 2002-021B
CENTER_NAME    = EARTH
REF_FRAME      = TEME
TIME_SYSTEM    = UTC
MEAN_ELEMENT_THEORY = SGP/SGP4

EPOCH          = 2026-01-12T18:27:08.210592
MEAN_MOTION    = 14.30977955
ECCENTRICITY   = .00118714
INCLINATION    = 98.5815
RA_OF_ASC_NODE = 312.0628
ARG_OF_PERICENTER = 357.8563
MEAN_ANOMALY   = 2.2567

EPHEMERIS_TYPE = 0
CLASSIFICATION_TYPE = U
NORAD_CAT_ID   = 27422
ELEMENT_SET_NO = 999
REV_AT_EPOCH   = 23602
BSTAR          = .12109214E-3
MEAN_MOTION_DOT = .275E-5
MEAN_MOTION_DDOT = 0

CCSDS_OMM_VERS = 2.0
CREATION_DATE  = 
ORIGINATOR     = 

OBJECT_NAME    = AQUA
OBJECT_ID      = 2002-022A
CENTER_NAME    = EARTH
REF_FRAME      = TEME
TIME_SYSTEM    = UTC
MEAN_ELEMENT_THEORY = SGP/SGP4

EPOCH          = 2026-01-12T23:20:21.658560
MEAN_MOTION    = 14.61817856
ECCENTRICITY   = .00020382
INCLINATION    = 98.4079
RA_OF_ASC_NODE = 339.3658
ARG_OF_PERICENTER = 80.7891
MEAN_ANOMALY   = 349.4888

EPHEMERIS_TYPE = 0
CLASSIFICATION_TYPE = U
NORAD_CAT_ID   = 27424
ELEMENT_SET_NO = 999
REV_AT_EPOCH   = 26059
BSTAR          = .18211525E-3
MEAN_MOTION_DOT = .86E-5
MEAN_MOTION_DDOT = 0

CCSDS_OMM_VERS = 2.0
CREATION_DATE  = 
ORIGINATOR     = 

OBJECT_NAME    = CZ-4B R/B
OBJECT_ID      = 2002-024C
CENTER_NAME    = EARTH
REF_FRAME      = TEME
TIME_SYSTEM    = UTC
MEAN_ELEMENT_THEORY = SGP/SGP4

EPOCH          = 2026-01-12T23:35:28.930272
MEAN_MOTION    = 14.14535275
ECCENTRICITY   = .00502222
INCLINATION    = 98.8953
RA_OF_ASC_NODE = 66.6387
ARG_OF_PERICENTER = 180.1440
MEAN_ANOMALY   = 251.8873

EPHEMERIS_TYPE = 0
CLASSIFICATION_TYPE = U
NORAD_CAT_ID   = 27432
ELEMENT_SET_NO = 999
REV_AT_EPOCH   = 22136
BSTAR          = .35015603E-4
MEAN_MOTION_DOT = .24E-6
MEAN_MOTION_DDOT = 0

CCSDS_OMM_VERS = 2.0
CREATION_DATE  = 
ORIGINATOR     = 

OBJECT_NAME    = MIDORI II (ADEOS-II)
OBJECT_ID      = 2002-056A
CENTER_NAME    = EARTH
REF_FRAME      = TEME
TIME_SYSTEM    = UTC
MEAN_ELEMENT_THEORY = SGP/SGP4

EPOCH          = 2026-01-12T20:51:19.533312
MEAN_MOTION    = 14.29233865
ECCENTRICITY   = .00016069
INCLINATION    = 98.7677
RA_OF_ASC_NODE = 330.9959
ARG_OF_PERICENTER = 121.3923
MEAN_ANOMALY   = 238.7416

EPHEMERIS_TYPE = 0
CLASSIFICATION_TYPE = U
NORAD_CAT_ID   = 27597
ELEMENT_SET_NO = 999
REV_AT_EPOCH   = 20232
BSTAR          = .11977988E-3
MEAN_MOTION_DOT = .259E-5
MEAN_MOTION_DDOT = 0

CCSDS_OMM_VERS = 2.0
CREATION_DATE  = 
ORIGINATOR     = 

OBJECT_NAME    = H-2A R/B
OBJECT_ID      = 2002-056E
CENTER_NAME    = EARTH
REF_FRAME      = TEME
TIME_SYSTEM    = UTC
MEAN_ELEMENT_THEORY = SGP/SGP4

EPOCH          = 2026-01-12T21:00:38.405664
MEAN_MOTION    = 14.33710210
ECCENTRICITY   = .00697371
INCLINATION    = 98.3107
RA_OF_ASC_NODE = 335.4005
ARG_OF_PERICENTER = 328.8382
MEAN_ANOMALY   = 84.7378

EPHEMERIS_TYPE = 0
CLASSIFICATION_TYPE = U
NORAD_CAT_ID   = 27601
ELEMENT_SET_NO = 999
REV_AT_EPOCH   = 20611
BSTAR          = .1313345E-3
MEAN_MOTION_DOT = .332E-5
MEAN_MOTION_DDOT = 0

CCSDS_OMM_VERS = 2.0
CREATION_DATE  = 
ORIGINATOR     = 

OBJECT_NAME    = CZ-4B R/B
OBJECT_ID      = 2003-049C
CENTER_NAME    = EARTH
REF_FRAME      = TEME
TIME_SYSTEM    = UTC
MEAN_ELEMENT_THEORY = SGP/SGP4

EPOCH          = 2026-01-12T22:56:09.903552
MEAN_MOTION    = 14.54946521
ECCENTRICITY   = .00490291
INCLINATION    = 98.6814
RA_OF_ASC_NODE = 5.7035
ARG_OF_PERICENTER = 42.8020
MEAN_ANOMALY   = 317.6977

EPHEMERIS_TYPE = 0
CLASSIFICATION_TYPE = U
NORAD_CAT_ID   = 28059
ELEMENT_SET_NO = 999
REV_AT_EPOCH   = 17849
BSTAR          = .98047805E-4
MEAN_MOTION_DOT = .377E-5
MEAN_MOTION_DDOT = 0

CCSDS_OMM_VERS = 2.0
CREATION_DATE  = 
ORIGINATOR     = 

OBJECT_NAME    = CZ-2C R/B
OBJECT_ID      = 2004-012C
CENTER_NAME    = EARTH
REF_FRAME      = TEME
TIME_SYSTEM    = UTC
MEAN_ELEMENT_THEORY = SGP/SGP4

EPOCH          = 2026-01-12T17:17:13.966656
MEAN_MOTION    = 15.58289582
ECCENTRICITY   = .00169783
INCLINATION    = 97.7372
RA_OF_ASC_NODE = 72.9546
ARG_OF_PERICENTER = 153.8389
MEAN_ANOMALY   = 206.3728

EPHEMERIS_TYPE = 0
CLASSIFICATION_TYPE = U
NORAD_CAT_ID   = 28222
ELEMENT_SET_NO = 999
REV_AT_EPOCH   = 19554
BSTAR          = .50242863E-3
MEAN_MOTION_DOT = .38303E-3
MEAN_MOTION_DDOT = 0

CCSDS_OMM_VERS = 2.0
CREATION_DATE  = 
ORIGINATOR     = 

OBJECT_NAME    = SL-16 R/B
OBJECT_ID      = 2004-021B
CENTER_NAME    = EARTH
REF_FRAME      = TEME
TIME_SYSTEM    = UTC
MEAN_ELEMENT_THEORY = SGP/SGP4

EPOCH          = 2026-01-12T22:44:24.411264
MEAN_MOTION    = 14.14592452
ECCENTRICITY   = .00032276
INCLINATION    = 71.0028
RA_OF_ASC_NODE = 349.4715
ARG_OF_PERICENTER = 147.7095
MEAN_ANOMALY   = 212.4226

EPHEMERIS_TYPE = 0
CLASSIFICATION_TYPE = U
NORAD_CAT_ID   = 28353
ELEMENT_SET_NO = 999
REV_AT_EPOCH   = 11495
BSTAR          = .49676384E-4
MEAN_MOTION_DOT = .48E-6
MEAN_MOTION_DDOT = 0

CCSDS_OMM_VERS = 2.0
CREATION_DATE  = 
ORIGINATOR     = 

OBJECT_NAME    = CZ-4B R/B
OBJECT_ID      = 2004-035C
CENTER_NAME    = EARTH
REF_FRAME      = TEME
TIME_SYSTEM    = UTC
MEAN_ELEMENT_THEORY = SGP/SGP4

EPOCH          = 2026-01-12T19:20:27.504960
MEAN_MOTION    = 15.27973466
ECCENTRICITY   = .00332479
INCLINATION    = 97.3581
RA_OF_ASC_NODE = 47.7420
ARG_OF_PERICENTER = 164.1077
MEAN_ANOMALY   = 196.1214

EPHEMERIS_TYPE = 0
CLASSIFICATION_TYPE = U
NORAD_CAT_ID   = 28415
ELEMENT_SET_NO = 999
REV_AT_EPOCH   = 17137
BSTAR          = .27468748E-3
MEAN_MOTION_DOT = .7545E-4
MEAN_MOTION_DDOT = 0

CCSDS_OMM_VERS = 2.0
CREATION_DATE  = 
ORIGINATOR     = 

OBJECT_NAME    = CZ-2C R/B
OBJECT_ID      = 2004-046B
CENTER_NAME    = EARTH
REF_FRAME      = TEME
TIME_SYSTEM    = UTC
MEAN_ELEMENT_THEORY = SGP/SGP4

EPOCH          = 2026-01-12T17:47:11.803776
MEAN_MOTION    = 14.26965023
ECCENTRICITY   = .01387806
INCLINATION    = 98.2000
RA_OF_ASC_NODE = 291.1956
ARG_OF_PERICENTER = 320.7724
MEAN_ANOMALY   = 38.3463

EPHEMERIS_TYPE = 0
CLASSIFICATION_TYPE = U
NORAD_CAT_ID   = 28480
ELEMENT_SET_NO = 999
REV_AT_EPOCH   = 10052
BSTAR          = .91754159E-4
MEAN_MOTION_DOT = .205E-5
MEAN_MOTION_DDOT = 0

CCSDS_OMM_VERS = 2.0
CREATION_DATE  = 
ORIGINATOR     = 

OBJECT_NAME    = ARIANE 5 R/B
OBJECT_ID      = 2004-049H
CENTER_NAME    = EARTH
REF_FRAME      = TEME
TIME_SYSTEM    = UTC
MEAN_ELEMENT_THEORY = SGP/SGP4

EPOCH          = 2026-01-12T21:59:22.021440
MEAN_MOTION    = 14.85115582
ECCENTRICITY   = .00845553
INCLINATION    = 98.2542
RA_OF_ASC_NODE = 179.3211
ARG_OF_PERICENTER = 171.0688
MEAN_ANOMALY   = 189.2054

EPHEMERIS_TYPE = 0
CLASSIFICATION_TYPE = U
NORAD_CAT_ID   = 28499
ELEMENT_SET_NO = 999
REV_AT_EPOCH   = 13751
BSTAR          = .12360004E-3
MEAN_MOTION_DOT = .1062E-4
MEAN_MOTION_DDOT = 0

CCSDS_OMM_VERS = 2.0
CREATION_DATE  = 
ORIGINATOR     = 

OBJECT_NAME    = CZ-2D R/B
OBJECT_ID      = 2005-024B
CENTER_NAME    = EARTH
REF_FRAME      = TEME
TIME_SYSTEM    = UTC
MEAN_ELEMENT_THEORY = SGP/SGP4

EPOCH          = 2026-01-12T22:44:58.949664
MEAN_MOTION    = 15.55369784
ECCENTRICITY   = .00039263
INCLINATION    = 97.3630
RA_OF_ASC_NODE = 26.2594
ARG_OF_PERICENTER = 200.3287
MEAN_ANOMALY   = 159.7812

EPHEMERIS_TYPE = 0
CLASSIFICATION_TYPE = U
NORAD_CAT_ID   = 28738
ELEMENT_SET_NO = 999
REV_AT_EPOCH   = 13110
BSTAR          = .36100092E-3
MEAN_MOTION_DOT = .24475E-3
MEAN_MOTION_DDOT = 0

